[{"OBJECT_NAME":"TIANMU-1 21","OBJECT_ID":"2023-208C","EPOCH":"2026-03-09T21:48:13.065120","MEAN_MOTION":15.33041299,"ECCENTRICITY":0.00059807,"INCLINATION":97.4378,"RA_OF_ASC_NODE":187.7048,"ARG_OF_PERICENTER":317.2488,"MEAN_ANOMALY":42.8288,"EPHEMERIS_TYPE":0,"CLASSIFICATION_TYPE":"U","NORAD_CAT_ID":58662,"ELEMENT_SET_NO":999,"REV_AT_EPOCH":12234,"BSTAR":0.00040063782,"MEAN_MOTION_DOT":0.00012722,"MEAN_MOTION_DDOT":0},{"OBJECT_NAME":"STARLINK-32735","OBJECT_ID":"2025-034R","EPOCH":"2026-03-09T20:15:25.482816","MEAN_MOTION":15.30194059,"ECCENTRICITY":0.00012964,"INCLINATION":53.157,"RA_OF_ASC_NODE":269.9641,"ARG_OF_PERICENTER":88.0091,"MEAN_ANOMALY":272.1058,"EPHEMERIS_TYPE":0,"CLASSIFICATION_TYPE":"U","NORAD_CAT_ID":63044,"ELEMENT_SET_NO":999,"REV_AT_EPOCH":5893,"BSTAR":0.0012728841,"MEAN_MOTION_DOT":0.00037524,"MEAN_MOTION_DDOT":0}]
